[{"OBJECT_NAME":"OBJECT AS","OBJECT_ID":"2023-085AS","EPOCH":"2026-03-09T22:43:55.521696","MEAN_MOTION":15.33336233,"ECCENTRICITY":0.00083243,"INCLINATION":97.4812,"RA_OF_ASC_NODE":180.8852,"ARG_OF_PERICENTER":80.6036,"MEAN_ANOMALY":279.6147,"EPHEMERIS_TYPE":0,"CLASSIFICATION_TYPE":"U","NORAD_CAT_ID":57044,"ELEMENT_SET_NO":999,"REV_AT_EPOCH":15162,"BSTAR":0.00067677795,"MEAN_MOTION_DOT":0.00021782,"MEAN_MOTION_DDOT":0},{"OBJECT_NAME":"STARLINK-35530","OBJECT_ID":"2025-225M","EPOCH":"2026-03-09T13:14:04.840224","MEAN_MOTION":15.3016779,"ECCENTRICITY":0.00013076,"INCLINATION":53.1584,"RA_OF_ASC_NODE":166.5546,"ARG_OF_PERICENTER":62.5628,"MEAN_ANOMALY":297.5505,"EPHEMERIS_TYPE":0,"CLASSIFICATION_TYPE":"U","NORAD_CAT_ID":65921,"ELEMENT_SET_NO":999,"REV_AT_EPOCH":2438,"BSTAR":0.0010076506,"MEAN_MOTION_DOT":0.00029574,"MEAN_MOTION_DDOT":0}]
